*******************************************************************************
Ephemeris / WWW_USER Mon Mar 24 07:48:52 2025 Pasadena, USA      / Horizons    
*******************************************************************************
Target body name: (2018 TB)                       {source: JPL#26}
Center body name: Earth (399)                     {source: DE441}
Center-site name: Mauna Kea
*******************************************************************************
Start time      : A.D. 2018-Oct-10 04:12:00.0000 UT      
Stop  time      : A.D. 2018-Oct-10 16:05:00.0000 UT      
Step-size       : 1 minutes
*******************************************************************************
Target pole/equ : undefined
Target radii    : undefined                                                    
Center geodetic : 204.5278, 19.8260847, 4.21024   {E-lon(deg),Lat(deg),Alt(km)}
Center cylindric: 204.5278, 6006.35451, 2151.0229 {E-lon(deg),Dxy(km),Dz(km)}
Center pole/equ : ITRF93                          {East-longitude positive}
Center radii    : 6378.137, 6378.137, 6356.752 km {Equator_a, b, pole_c}       
Target primary  : Sun
Vis. interferer : MOON (R_eq= 1737.400) km        {source: DE441}
Rel. light bend : Sun                             {source: DE441}
Rel. lght bnd GM: 1.3271E+11 km^3/s^2                                          
Small-body perts: Yes                             {source: SB441-N16}
Atmos refraction: NO (AIRLESS)
RA format       : HMS
Time format     : CAL 
Calendar mode   : Mixed Julian/Gregorian
RTS-only print  : NO       
EOP file        : eop.250321.p250617                                           
EOP coverage    : DATA-BASED 1962-JAN-20 TO 2025-MAR-21. PREDICTS-> 2025-JUN-16
Units conversion: 1 au= 149597870.700 km, c= 299792.458 km/s, 1 day= 86400.0 s 
Table cut-offs 1: Elevation (-90.0deg=NO ),Airmass (>38.000=NO), Daylight (YES)
Table cut-offs 2: Solar elongation (  0.0,180.0=NO ),Local Hour Angle( 0.0=NO )
Table cut-offs 3: RA/DEC angular rate (     0.0=NO )                           
*******************************************************************************
Initial IAU76/J2000 heliocentric ecliptic osculating elements (au, days, deg.):
  EPOCH=  2458410.5 ! 2018-Oct-19.00 (TDB)         Residual RMS= .12604        
   EC= .5817616216321111   QR= 1.001672821897195   TP= 2458383.1822299529      
   OM= 14.42282174156359   W=  341.1556337077549   IN= 3.61300419916586        
  Equivalent ICRF heliocentric cartesian coordinates (au, au/d):
   X= 9.381709462996228E-01  Y= 4.515017153732180E-01  Z= 2.129237315158303E-01
  VX=-5.799214133182419E-03 VY= 1.778204046057418E-02 VZ= 9.138573561666745E-03
Asteroid physical parameters (km, seconds, rotational period in hours):        
   GM= n.a.                RAD= n.a.               ROTPER= n.a.                
   H= 24.89                G= .150                 B-V= n.a.                   
                           ALBEDO= n.a.            STYP= n.a.                  
*******************************************************************************
 Date__(UT)__HR:MN     R.A._________(ICRF)_________DEC
******************************************************
$$SOE
 2018-Oct-10 12:24     03 32 10.499337 +25 25 25.50510
 2018-Oct-10 12:25     03 32 10.651370 +25 25 29.14791
 2018-Oct-10 12:26     03 32 10.803363 +25 25 32.78853
 2018-Oct-10 12:27     03 32 10.955317 +25 25 36.42697
 2018-Oct-10 12:28     03 32 11.107232 +25 25 40.06322
 2018-Oct-10 12:29     03 32 11.259111 +25 25 43.69728
 2018-Oct-10 12:30     03 32 11.410955 +25 25 47.32916
 2018-Oct-10 12:31     03 32 11.562764 +25 25 50.95885
 2018-Oct-10 12:32     03 32 11.714540 +25 25 54.58636
 2018-Oct-10 12:33     03 32 11.866284 +25 25 58.21167
 2018-Oct-10 12:34     03 32 12.017998 +25 26 01.83481
 2018-Oct-10 12:35     03 32 12.169682 +25 26 05.45575
 2018-Oct-10 12:36     03 32 12.321337 +25 26 09.07451
 2018-Oct-10 12:37     03 32 12.472966 +25 26 12.69109
 2018-Oct-10 12:38     03 32 12.624568 +25 26 16.30548
 2018-Oct-10 12:39  t  03 32 12.776147 +25 26 19.91768
 2018-Oct-10 12:40     03 32 12.927701 +25 26 23.52770
 2018-Oct-10 12:41     03 32 13.079233 +25 26 27.13554
 2018-Oct-10 12:42     03 32 13.230744 +25 26 30.74119
 2018-Oct-10 12:43     03 32 13.382236 +25 26 34.34466
 2018-Oct-10 12:44     03 32 13.533708 +25 26 37.94595
 2018-Oct-10 12:45     03 32 13.685163 +25 26 41.54506
 2018-Oct-10 12:46     03 32 13.836602 +25 26 45.14198
 2018-Oct-10 12:47     03 32 13.988025 +25 26 48.73672
 2018-Oct-10 12:48     03 32 14.139435 +25 26 52.32928
 2018-Oct-10 12:49     03 32 14.290832 +25 26 55.91966
 2018-Oct-10 12:50     03 32 14.442217 +25 26 59.50786
 2018-Oct-10 12:51     03 32 14.593592 +25 27 03.09388
 2018-Oct-10 12:52     03 32 14.744958 +25 27 06.67773
 2018-Oct-10 12:53     03 32 14.896316 +25 27 10.25939
 2018-Oct-10 12:54     03 32 15.047667 +25 27 13.83888
 2018-Oct-10 12:55     03 32 15.199013 +25 27 17.41620
 2018-Oct-10 12:56     03 32 15.350354 +25 27 20.99134
 2018-Oct-10 12:57     03 32 15.501692 +25 27 24.56430
 2018-Oct-10 12:58     03 32 15.653028 +25 27 28.13510
 2018-Oct-10 12:59     03 32 15.804363 +25 27 31.70372
 2018-Oct-10 13:00     03 32 15.955699 +25 27 35.27016
 2018-Oct-10 13:01     03 32 16.107036 +25 27 38.83444
 2018-Oct-10 13:02     03 32 16.258376 +25 27 42.39655
 2018-Oct-10 13:03     03 32 16.409720 +25 27 45.95649
 2018-Oct-10 13:04     03 32 16.561069 +25 27 49.51426
 2018-Oct-10 13:05     03 32 16.712424 +25 27 53.06987
 2018-Oct-10 13:06     03 32 16.863786 +25 27 56.62331
 2018-Oct-10 13:07     03 32 17.015158 +25 28 00.17459
 2018-Oct-10 13:08     03 32 17.166539 +25 28 03.72370
 2018-Oct-10 13:09     03 32 17.317931 +25 28 07.27066
 2018-Oct-10 13:10     03 32 17.469336 +25 28 10.81545
 2018-Oct-10 13:11     03 32 17.620754 +25 28 14.35809
 2018-Oct-10 13:12     03 32 17.772186 +25 28 17.89856
 2018-Oct-10 13:13     03 32 17.923634 +25 28 21.43688
 2018-Oct-10 13:14     03 32 18.075099 +25 28 24.97305
 2018-Oct-10 13:15     03 32 18.226582 +25 28 28.50706
 2018-Oct-10 13:16     03 32 18.378085 +25 28 32.03892
 2018-Oct-10 13:17     03 32 18.529607 +25 28 35.56863
 2018-Oct-10 13:18     03 32 18.681152 +25 28 39.09619
 2018-Oct-10 13:19     03 32 18.832719 +25 28 42.62160
 2018-Oct-10 13:20     03 32 18.984310 +25 28 46.14486
 2018-Oct-10 13:21     03 32 19.135926 +25 28 49.66598
 2018-Oct-10 13:22     03 32 19.287569 +25 28 53.18496
 2018-Oct-10 13:23     03 32 19.439238 +25 28 56.70180
 2018-Oct-10 13:24     03 32 19.590937 +25 29 00.21650
 2018-Oct-10 13:25     03 32 19.742665 +25 29 03.72906
 2018-Oct-10 13:26     03 32 19.894424 +25 29 07.23948
 2018-Oct-10 13:27     03 32 20.046215 +25 29 10.74777
 2018-Oct-10 13:28     03 32 20.198040 +25 29 14.25392
 2018-Oct-10 13:29     03 32 20.349899 +25 29 17.75795
 2018-Oct-10 13:30     03 32 20.501793 +25 29 21.25984
 2018-Oct-10 13:31     03 32 20.653724 +25 29 24.75961
 2018-Oct-10 13:32     03 32 20.805693 +25 29 28.25726
 2018-Oct-10 13:33     03 32 20.957701 +25 29 31.75277
 2018-Oct-10 13:34     03 32 21.109749 +25 29 35.24617
 2018-Oct-10 13:35     03 32 21.261838 +25 29 38.73745
 2018-Oct-10 13:36     03 32 21.413970 +25 29 42.22661
 2018-Oct-10 13:37     03 32 21.566145 +25 29 45.71366
 2018-Oct-10 13:38     03 32 21.718365 +25 29 49.19859
 2018-Oct-10 13:39     03 32 21.870631 +25 29 52.68141
 2018-Oct-10 13:40     03 32 22.022944 +25 29 56.16213
 2018-Oct-10 13:41     03 32 22.175304 +25 29 59.64073
 2018-Oct-10 13:42     03 32 22.327715 +25 30 03.11723
 2018-Oct-10 13:43     03 32 22.480175 +25 30 06.59163
 2018-Oct-10 13:44     03 32 22.632688 +25 30 10.06393
 2018-Oct-10 13:45     03 32 22.785252 +25 30 13.53413
 2018-Oct-10 13:46     03 32 22.937871 +25 30 17.00224
 2018-Oct-10 13:47     03 32 23.090545 +25 30 20.46825
 2018-Oct-10 13:48     03 32 23.243274 +25 30 23.93217
 2018-Oct-10 13:49     03 32 23.396061 +25 30 27.39400
 2018-Oct-10 13:50     03 32 23.548906 +25 30 30.85375
 2018-Oct-10 13:51     03 32 23.701811 +25 30 34.31141
 2018-Oct-10 13:52     03 32 23.854776 +25 30 37.76699
 2018-Oct-10 13:53     03 32 24.007802 +25 30 41.22049
 2018-Oct-10 13:54     03 32 24.160892 +25 30 44.67192
 2018-Oct-10 13:55     03 32 24.314045 +25 30 48.12127
 2018-Oct-10 13:56     03 32 24.467263 +25 30 51.56856
 2018-Oct-10 13:57     03 32 24.620547 +25 30 55.01377
 2018-Oct-10 13:58     03 32 24.773899 +25 30 58.45692
 2018-Oct-10 13:59     03 32 24.927319 +25 31 01.89800
 2018-Oct-10 14:00     03 32 25.080808 +25 31 05.33703
 2018-Oct-10 14:01     03 32 25.234367 +25 31 08.77399
 2018-Oct-10 14:02     03 32 25.387999 +25 31 12.20891
 2018-Oct-10 14:03     03 32 25.541703 +25 31 15.64177
 2018-Oct-10 14:04     03 32 25.695480 +25 31 19.07258
 2018-Oct-10 14:05     03 32 25.849333 +25 31 22.50134
 2018-Oct-10 14:06     03 32 26.003262 +25 31 25.92806
 2018-Oct-10 14:07     03 32 26.157267 +25 31 29.35274
 2018-Oct-10 14:08     03 32 26.311351 +25 31 32.77539
 2018-Oct-10 14:09     03 32 26.465514 +25 31 36.19600
 2018-Oct-10 14:10     03 32 26.619757 +25 31 39.61457
 2018-Oct-10 14:11     03 32 26.774082 +25 31 43.03112
 2018-Oct-10 14:12     03 32 26.928489 +25 31 46.44564
 2018-Oct-10 14:13     03 32 27.082979 +25 31 49.85814
 2018-Oct-10 14:14     03 32 27.237554 +25 31 53.26862
 2018-Oct-10 14:15     03 32 27.392215 +25 31 56.67708
 2018-Oct-10 14:16     03 32 27.546963 +25 32 00.08354
 2018-Oct-10 14:17     03 32 27.701798 +25 32 03.48798
 2018-Oct-10 14:18     03 32 27.856722 +25 32 06.89041
 2018-Oct-10 14:19     03 32 28.011736 +25 32 10.29084
 2018-Oct-10 14:20     03 32 28.166841 +25 32 13.68927
 2018-Oct-10 14:21     03 32 28.322038 +25 32 17.08570
 2018-Oct-10 14:22     03 32 28.477328 +25 32 20.48014
 2018-Oct-10 14:23     03 32 28.632712 +25 32 23.87259
 2018-Oct-10 14:24     03 32 28.788192 +25 32 27.26305
 2018-Oct-10 14:25     03 32 28.943767 +25 32 30.65153
 2018-Oct-10 14:26     03 32 29.099440 +25 32 34.03802
